{
  "type": "FeatureCollection",
  "features": [
    {
      "type": "Feature",
      "properties": {
        "norad_id": 34003,
        "name": "COSMOS 2251 DEB",
        "group": "cosmos-2251-debris",
        "lat": -14.733417784169038,
        "lon": 104.5307887656374,
        "alt_km": 1146.022273119168,
        "timestamp": "2025-12-15T15:53:20.241706+00:00",
        "meta_object_name": "COSMOS 2251 DEB",
        "meta_object_id": "1993-036GN",
        "meta_epoch": "2025-12-14T21:36:56.499552",
        "meta_mean_motion": 13.8416537,
        "meta_eccentricity": 0.0274563,
        "meta_inclination": 74.0769,
        "meta_ra_of_asc_node": 281.5067,
        "meta_arg_of_pericenter": 33.033,
        "meta_mean_anomaly": 328.7613,
        "meta_ephemeris_type": 0,
        "meta_classification_type": "U",
        "meta_norad_cat_id": 34003,
        "meta_element_set_no": 999,
        "meta_rev_at_epoch": 84455,
        "meta_bstar": 0.0016495834,
        "meta_mean_motion_dot": 2.44e-05,
        "meta_mean_motion_ddot": 0,
        "tle_line1": "1 34003U 93036GN  25348.90065393  .00002440  00000+0  16496-2 0  9995",
        "tle_line2": "2 34003  74.0769 281.5067 0274563  33.0330 328.7613 13.84165370844557"
      },
      "geometry": {
        "type": "Point",
        "coordinates": [
          104.5307887656374,
          -14.733417784169038
        ]
      }
    },
    {
      "type": "Feature",
      "properties": {
        "norad_id": 34004,
        "name": "COSMOS 2251 DEB",
        "group": "cosmos-2251-debris",
        "lat": 24.209363872873958,
        "lon": 120.23502584116784,
        "alt_km": 750.7190556231571,
        "timestamp": "2025-12-15T15:53:20.241715+00:00",
        "meta_object_name": "COSMOS 2251 DEB",
        "meta_object_id": "1993-036GP",
        "meta_epoch": "2025-12-14T22:36:23.906304",
        "meta_mean_motion": 14.49034316,
        "meta_eccentricity": 0.0033394,
        "meta_inclination": 74.0349,
        "meta_ra_of_asc_node": 308.9799,
        "meta_arg_of_pericenter": 320.9032,
        "meta_mean_anomaly": 38.9714,
        "meta_ephemeris_type": 0,
        "meta_classification_type": "U",
        "meta_norad_cat_id": 34004,
        "meta_element_set_no": 999,
        "meta_rev_at_epoch": 88062,
        "meta_bstar": 0.00089899725,
        "meta_mean_motion_dot": 3.409e-05,
        "meta_mean_motion_ddot": 0,
        "tle_line1": "1 34004U 93036GP  25348.94194336  .00003409  00000+0  89900-3 0  9997",
        "tle_line2": "2 34004  74.0349 308.9799 0033394 320.9032  38.9714 14.49034316880627"
      },
      "geometry": {
        "type": "Point",
        "coordinates": [
          120.23502584116784,
          24.209363872873958
        ]
      }
    },
    {
      "type": "Feature",
      "properties": {
        "norad_id": 34005,
        "name": "COSMOS 2251 DEB",
        "group": "cosmos-2251-debris",
        "lat": -22.359522195440608,
        "lon": -158.50979461519267,
        "alt_km": 747.8409138529532,
        "timestamp": "2025-12-15T15:53:20.241724+00:00",
        "meta_object_name": "COSMOS 2251 DEB",
        "meta_object_id": "1993-036GQ",
        "meta_epoch": "2025-12-14T23:38:19.279968",
        "meta_mean_motion": 14.40305874,
        "meta_eccentricity": 0.00209224,
        "meta_inclination": 74.0441,
        "meta_ra_of_asc_node": 209.4993,
        "meta_arg_of_pericenter": 327.3092,
        "meta_mean_anomaly": 100.062,
        "meta_ephemeris_type": 0,
        "meta_classification_type": "U",
        "meta_norad_cat_id": 34005,
        "meta_element_set_no": 999,
        "meta_rev_at_epoch": 88411,
        "meta_bstar": 0.00011236217,
        "meta_mean_motion_dot": 3.3e-06,
        "meta_mean_motion_ddot": 0,
        "tle_line1": "1 34005U 93036GQ  25348.98494537  .00000330  00000+0  11236-3 0  9995",
        "tle_line2": "2 34005  74.0441 209.4993 0020922 327.3092 100.0620 14.40305874884118"
      },
      "geometry": {
        "type": "Point",
        "coordinates": [
          -158.50979461519267,
          -22.359522195440608
        ]
      }
    },
    {
      "type": "Feature",
      "properties": {
        "norad_id": 34006,
        "name": "COSMOS 2251 DEB",
        "group": "cosmos-2251-debris",
        "lat": 73.07948608371116,
        "lon": -112.63902291349741,
        "alt_km": 567.5879795605724,
        "timestamp": "2025-12-15T15:53:20.241734+00:00",
        "meta_object_name": "COSMOS 2251 DEB",
        "meta_object_id": "1993-036GR",
        "meta_epoch": "2025-12-14T12:26:21.399936",
        "meta_mean_motion": 14.94921622,
        "meta_eccentricity": 0.00110146,
        "meta_inclination": 74.053,
        "meta_ra_of_asc_node": 139.7033,
        "meta_arg_of_pericenter": 82.2407,
        "meta_mean_anomaly": 340.5667,
        "meta_ephemeris_type": 0,
        "meta_classification_type": "U",
        "meta_norad_cat_id": 34006,
        "meta_element_set_no": 999,
        "meta_rev_at_epoch": 88695,
        "meta_bstar": 0.0038140177,
        "meta_mean_motion_dot": 0.00041895,
        "meta_mean_motion_ddot": 0,
        "tle_line1": "1 34006U 93036GR  25348.51830324  .00041895  00000+0  38140-2 0  9996",
        "tle_line2": "2 34006  74.0530 139.7033 0011014  82.2407 340.5667 14.94921622886957"
      },
      "geometry": {
        "type": "Point",
        "coordinates": [
          -112.63902291349741,
          73.07948608371116
        ]
      }
    },
    {
      "type": "Feature",
      "properties": {
        "norad_id": 34007,
        "name": "COSMOS 2251 DEB",
        "group": "cosmos-2251-debris",
        "lat": 69.25622901405212,
        "lon": 30.440596814327247,
        "alt_km": 646.1811752289959,
        "timestamp": "2025-12-15T15:53:20.241743+00:00",
        "meta_object_name": "COSMOS 2251 DEB",
        "meta_object_id": "1993-036GS",
        "meta_epoch": "2025-12-14T23:09:00.034272",
        "meta_mean_motion": 14.64804389,
        "meta_eccentricity": 0.00442726,
        "meta_inclination": 74.0193,
        "meta_ra_of_asc_node": 342.6137,
        "meta_arg_of_pericenter": 116.8572,
        "meta_mean_anomaly": 243.7133,
        "meta_ephemeris_type": 0,
        "meta_classification_type": "U",
        "meta_norad_cat_id": 34007,
        "meta_element_set_no": 999,
        "meta_rev_at_epoch": 89112,
        "meta_bstar": 0.00051532024,
        "meta_mean_motion_dot": 2.759e-05,
        "meta_mean_motion_ddot": 0,
        "tle_line1": "1 34007U 93036GS  25348.96458373  .00002759  00000+0  51532-3 0  9993",
        "tle_line2": "2 34007  74.0193 342.6137 0044272 116.8572 243.7133 14.64804389891126"
      },
      "geometry": {
        "type": "Point",
        "coordinates": [
          30.440596814327247,
          69.25622901405212
        ]
      }
    },
    {
      "type": "Feature",
      "properties": {
        "norad_id": 34008,
        "name": "COSMOS 2251 DEB",
        "group": "cosmos-2251-debris",
        "lat": 11.215292150499645,
        "lon": 141.92426121969618,
        "alt_km": 797.6045070721202,
        "timestamp": "2025-12-15T15:53:20.241752+00:00",
        "meta_object_name": "COSMOS 2251 DEB",
        "meta_object_id": "1993-036GT",
        "meta_epoch": "2025-12-14T09:42:11.017152",
        "meta_mean_motion": 14.33147784,
        "meta_eccentricity": 0.00243787,
        "meta_inclination": 74.0343,
        "meta_ra_of_asc_node": 327.476,
        "meta_arg_of_pericenter": 322.4075,
        "meta_mean_anomaly": 199.4155,
        "meta_ephemeris_type": 0,
        "meta_classification_type": "U",
        "meta_norad_cat_id": 34008,
        "meta_element_set_no": 999,
        "meta_rev_at_epoch": 87988,
        "meta_bstar": 0.000171717,
        "meta_mean_motion_dot": 4.47e-06,
        "meta_mean_motion_ddot": 0,
        "tle_line1": "1 34008U 93036GT  25348.40429418  .00000447  00000+0  17172-3 0  9995",
        "tle_line2": "2 34008  74.0343 327.4760 0024378 322.4075 199.4155 14.33147784879880"
      },
      "geometry": {
        "type": "Point",
        "coordinates": [
          141.92426121969618,
          11.215292150499645
        ]
      }
    },
    {
      "type": "Feature",
      "properties": {
        "norad_id": 34009,
        "name": "COSMOS 2251 DEB",
        "group": "cosmos-2251-debris",
        "lat": -24.248158546664808,
        "lon": 159.00434727594458,
        "alt_km": 804.4831163785757,
        "timestamp": "2025-12-15T15:53:20.241761+00:00",
        "meta_object_name": "COSMOS 2251 DEB",
        "meta_object_id": "1993-036GU",
        "meta_epoch": "2025-12-14T09:28:48.304992",
        "meta_mean_motion": 14.33223761,
        "meta_eccentricity": 0.00265625,
        "meta_inclination": 74.0371,
        "meta_ra_of_asc_node": 333.9113,
        "meta_arg_of_pericenter": 43.011,
        "meta_mean_anomaly": 107.3013,
        "meta_ephemeris_type": 0,
        "meta_classification_type": "U",
        "meta_norad_cat_id": 34009,
        "meta_element_set_no": 999,
        "meta_rev_at_epoch": 87969,
        "meta_bstar": 0.00019319931,
        "meta_mean_motion_dot": 5.07e-06,
        "meta_mean_motion_ddot": 0,
        "tle_line1": "1 34009U 93036GU  25348.39500353  .00000507  00000+0  19320-3 0  9996",
        "tle_line2": "2 34009  74.0371 333.9113 0026562  43.0110 107.3013 14.33223761879699"
      },
      "geometry": {
        "type": "Point",
        "coordinates": [
          159.00434727594458,
          -24.248158546664808
        ]
      }
    }
  ]
}